start=new Date('2023-02-20T00:00:00.000Z').valueOf();
sats=[{"CENTER_NAME":"EARTH","SITE":"AFETR","SEMIMAJOR_AXIS":"6925.509","CLASSIFICATION_TYPE":"U","TLE_LINE1":"1 48122U 21027AG  23050.67680481  .00011927  00000-0  81936-3 0  9999","OBJECT_TYPE":"PAYLOAD","TLE_LINE2":"2 48122  53.0552 117.5871 0001573  73.1829 286.9332 15.06347770104328","DECAY_DATE":null,"INCLINATION":"53.0552","MEAN_ELEMENT_THEORY":"SGP4","OBJECT_NAME":"STARLINK-2463","APOAPSIS":"548.463","ECCENTRICITY":"0.00015730","EPHEMERIS_TYPE":"0","FILE":"3812031","RCS_SIZE":"LARGE","REF_FRAME":"TEME","NORAD_CAT_ID":"48122","COUNTRY_CODE":"US","MEAN_MOTION_DDOT":"0.0000000000000","ARG_OF_PERICENTER":"73.1829","MEAN_MOTION":"15.06347770","EPOCH":"2023-02-19T16:14:35.935584","LAUNCH_DATE":"2021-04-07","BSTAR":"0.00081936000000","MEAN_ANOMALY":"286.9332","TIME_SYSTEM":"UTC","GP_ID":"226059542","MEAN_MOTION_DOT":"0.00011927","REV_AT_EPOCH":"10432","PERIAPSIS":"546.284","ELEMENT_SET_NO":"999","RA_OF_ASC_NODE":"117.5871","PERIOD":"95.595","OBJECT_ID":"2021-027AG"},{"GP_ID":"226071145","PERIAPSIS":"545.559","REV_AT_EPOCH":"10441","ELEMENT_SET_NO":"999","MEAN_MOTION_DOT":"0.00010124","OBJECT_ID":"2021-027AH","RA_OF_ASC_NODE":"111.6860","PERIOD":"95.591","ARG_OF_PERICENTER":"73.9313","LAUNCH_DATE":"2021-04-07","EPOCH":"2023-02-19T21:15:08.151264","MEAN_MOTION":"15.06411888","MEAN_ANOMALY":"286.1934","BSTAR":"0.00069732000000","TIME_SYSTEM":"UTC","ECCENTRICITY":"0.00023370","APOAPSIS":"548.796","REF_FRAME":"TEME","NORAD_CAT_ID":"48123","FILE":"3812703","RCS_SIZE":"LARGE","EPHEMERIS_TYPE":"0","MEAN_MOTION_DDOT":"0.0000000000000","COUNTRY_CODE":"US","SITE":"AFETR","CENTER_NAME":"EARTH","CLASSIFICATION_TYPE":"U","SEMIMAJOR_AXIS":"6925.312","DECAY_DATE":null,"TLE_LINE2":"2 48123  53.0508 111.6860 0002337  73.9313 286.1934 15.06411888104410","OBJECT_TYPE":"PAYLOAD","TLE_LINE1":"1 48123U 21027AH  23050.88551101  .00010124  00000-0  69732-3 0  9997","OBJECT_NAME":"STARLINK-2464","MEAN_ELEMENT_THEORY":"SGP4","INCLINATION":"53.0508"},{"OBJECT_ID":"2021-027AJ","RA_OF_ASC_NODE":"123.4684","PERIOD":"95.594","PERIAPSIS":"545.941","ELEMENT_SET_NO":"999","REV_AT_EPOCH":"10461","MEAN_MOTION_DOT":"0.00012332","GP_ID":"226045549","TIME_SYSTEM":"UTC","MEAN_ANOMALY":"275.2441","BSTAR":"0.00084614000000","LAUNCH_DATE":"2021-04-07","EPOCH":"2023-02-19T11:40:36.713856","MEAN_MOTION":"15.06365359","ARG_OF_PERICENTER":"84.8775","MEAN_MOTION_DDOT":"0.0000000000000","COUNTRY_CODE":"US","NORAD_CAT_ID":"48124","REF_FRAME":"TEME","RCS_SIZE":"LARGE","FILE":"3811610","EPHEMERIS_TYPE":"0","ECCENTRICITY":"0.00019910","APOAPSIS":"548.699","OBJECT_NAME":"STARLINK-2465","INCLINATION":"53.0537","MEAN_ELEMENT_THEORY":"SGP4","DECAY_DATE":null,"TLE_LINE2":"2 48124  53.0537 123.4684 0001991  84.8775 275.2441 15.06365359104611","TLE_LINE1":"1 48124U 21027AJ  23050.48653604  .00012332  00000-0  84614-3 0  9994","OBJECT_TYPE":"PAYLOAD","CLASSIFICATION_TYPE":"U","SEMIMAJOR_AXIS":"6925.455","SITE":"AFETR","CENTER_NAME":"EARTH"},{"OBJECT_TYPE":"PAYLOAD","TLE_LINE1":"1 48125U 21027AK  23050.69940980  .00023836  00000-0  16124-2 0  9995","DECAY_DATE":null,"TLE_LINE2":"2 48125  53.0500 132.7616 0000693  68.5513 291.5550 15.06429870104113","OBJECT_NAME":"STARLINK-2466","MEAN_ELEMENT_THEORY":"SGP4","INCLINATION":"53.0500","SITE":"AFETR","CENTER_NAME":"EARTH","SEMIMAJOR_AXIS":"6925.257","CLASSIFICATION_TYPE":"U","COUNTRY_CODE":"US","MEAN_MOTION_DDOT":"0.0000000000000","APOAPSIS":"547.602","ECCENTRICITY":"0.00006930","EPHEMERIS_TYPE":"0","NORAD_CAT_ID":"48125","REF_FRAME":"TEME","RCS_SIZE":"LARGE","FILE":"3812050","MEAN_ANOMALY":"291.5550","BSTAR":"0.00161240000000","TIME_SYSTEM":"UTC","ARG_OF_PERICENTER":"68.5513","MEAN_MOTION":"15.06429870","LAUNCH_DATE":"2021-04-07","EPOCH":"2023-02-19T16:47:09.006720","ELEMENT_SET_NO":"999","PERIAPSIS":"546.642","REV_AT_EPOCH":"10411","MEAN_MOTION_DOT":"0.00023836","RA_OF_ASC_NODE":"132.7616","PERIOD":"95.590","OBJECT_ID":"2021-027AK","GP_ID":"226060273"},{"MEAN_MOTION":"15.06431267","EPOCH":"2023-02-19T15:40:45.380064","LAUNCH_DATE":"2021-04-07","ARG_OF_PERICENTER":"71.7018","TIME_SYSTEM":"UTC","BSTAR":"0.00142680000000","MEAN_ANOMALY":"288.4122","GP_ID":"226060332","RA_OF_ASC_NODE":"112.7262","PERIOD":"95.590","OBJECT_ID":"2021-027AL","MEAN_MOTION_DOT":"0.00021052","REV_AT_EPOCH":"10438","PERIAPSIS":"546.152","ELEMENT_SET_NO":"999","SEMIMAJOR_AXIS":"6925.253","CLASSIFICATION_TYPE":"U","CENTER_NAME":"EARTH","SITE":"AFETR","MEAN_ELEMENT_THEORY":"SGP4","INCLINATION":"53.0509","OBJECT_NAME":"STARLINK-2467","OBJECT_TYPE":"PAYLOAD","TLE_LINE1":"1 48126U 21027AL  23050.65330301  .00021052  00000-0  14268-2 0  9997","TLE_LINE2":"2 48126  53.0509 112.7262 0001395  71.7018 288.4122 15.06431267104386","DECAY_DATE":null,"EPHEMERIS_TYPE":"0","RCS_SIZE":"LARGE","FILE":"3812064","REF_FRAME":"TEME","NORAD_CAT_ID":"48126","APOAPSIS":"548.084","ECCENTRICITY":"0.00013950","COUNTRY_CODE":"US","MEAN_MOTION_DDOT":"0.0000000000000"},{"INCLINATION":"53.0525","MEAN_ELEMENT_THEORY":"SGP4","OBJECT_NAME":"STARLINK-2468","TLE_LINE1":"1 48127U 21027AM  23050.51135505  .00033090  00000-0  22250-2 0  9997","OBJECT_TYPE":"PAYLOAD","TLE_LINE2":"2 48127  53.0525 133.3642 0001570  75.8292 284.2871 15.06482424104487","DECAY_DATE":null,"SEMIMAJOR_AXIS":"6925.096","CLASSIFICATION_TYPE":"U","SITE":"AFETR","CENTER_NAME":"EARTH","COUNTRY_CODE":"US","MEAN_MOTION_DDOT":"0.0000000000000","EPHEMERIS_TYPE":"0","RCS_SIZE":"LARGE","FILE":"3811610","REF_FRAME":"TEME","NORAD_CAT_ID":"48127","APOAPSIS":"548.048","ECCENTRICITY":"0.00015700","TIME_SYSTEM":"UTC","BSTAR":"0.00222500000000","MEAN_ANOMALY":"284.2871","MEAN_MOTION":"15.06482424","EPOCH":"2023-02-19T12:16:21.076320","LAUNCH_DATE":"2021-04-07","ARG_OF_PERICENTER":"75.8292","PERIOD":"95.587","RA_OF_ASC_NODE":"133.3642","OBJECT_ID":"2021-027AM","MEAN_MOTION_DOT":"0.00033090","REV_AT_EPOCH":"10448","PERIAPSIS":"545.874","ELEMENT_SET_NO":"999","GP_ID":"226045800"},{"CENTER_NAME":"EARTH","SITE":"AFETR","SEMIMAJOR_AXIS":"6925.314","CLASSIFICATION_TYPE":"U","TLE_LINE1":"1 48128U 21027AN  23050.35936706  .00015829  00000-0  10788-2 0  9995","OBJECT_TYPE":"PAYLOAD","DECAY_DATE":null,"TLE_LINE2":"2 48128  53.0523  64.1261 0001131  89.5248 270.5870 15.06411377105432","OBJECT_NAME":"STARLINK-2469","INCLINATION":"53.0523","MEAN_ELEMENT_THEORY":"SGP4","APOAPSIS":"547.962","ECCENTRICITY":"0.00011310","EPHEMERIS_TYPE":"0","REF_FRAME":"TEME","NORAD_CAT_ID":"48128","FILE":"3811610","RCS_SIZE":"LARGE","COUNTRY_CODE":"US","MEAN_MOTION_DDOT":"0.0000000000000","ARG_OF_PERICENTER":"89.5248","MEAN_MOTION":"15.06411377","LAUNCH_DATE":"2021-04-07","EPOCH":"2023-02-19T08:37:29.313984","MEAN_ANOMALY":"270.5870","BSTAR":"0.00107880000000","TIME_SYSTEM":"UTC","GP_ID":"226046049","REV_AT_EPOCH":"10543","PERIAPSIS":"546.395","ELEMENT_SET_NO":"999","MEAN_MOTION_DOT":"0.00015829","RA_OF_ASC_NODE":"64.1261","PERIOD":"95.591","OBJECT_ID":"2021-027AN"},{"CENTER_NAME":"EARTH","SITE":"AFETR","SEMIMAJOR_AXIS":"6925.195","CLASSIFICATION_TYPE":"U","OBJECT_TYPE":"PAYLOAD","TLE_LINE1":"1 48129U 21027AP  23050.70298890  .00009170  00000-0  63288-3 0  9996","TLE_LINE2":"2 48129  53.0529 132.4996 0001140  71.6262 288.4850 15.06449965104115","DECAY_DATE":null,"MEAN_ELEMENT_THEORY":"SGP4","INCLINATION":"53.0529","OBJECT_NAME":"STARLINK-2471","APOAPSIS":"547.850","ECCENTRICITY":"0.00011400","EPHEMERIS_TYPE":"0","FILE":"3812167","RCS_SIZE":"LARGE","REF_FRAME":"TEME","NORAD_CAT_ID":"48129","COUNTRY_CODE":"US","MEAN_MOTION_DDOT":"0.0000000000000","ARG_OF_PERICENTER":"71.6262","MEAN_MOTION":"15.06449965","EPOCH":"2023-02-19T16:52:18.240960","LAUNCH_DATE":"2021-04-07","BSTAR":"0.00063288000000","MEAN_ANOMALY":"288.4850","TIME_SYSTEM":"UTC","GP_ID":"226063369","MEAN_MOTION_DOT":"0.00009170","REV_AT_EPOCH":"10411","PERIAPSIS":"546.271","ELEMENT_SET_NO":"999","PERIOD":"95.589","RA_OF_ASC_NODE":"132.4996","OBJECT_ID":"2021-027AP"},{"SEMIMAJOR_AXIS":"6925.180","CLASSIFICATION_TYPE":"U","CENTER_NAME":"EARTH","SITE":"AFETR","OBJECT_NAME":"STARLINK-2472","MEAN_ELEMENT_THEORY":"SGP4","INCLINATION":"53.0520","OBJECT_TYPE":"PAYLOAD","TLE_LINE1":"1 48130U 21027AQ  23050.75877906  .00027984  00000-0  18873-2 0  9996","DECAY_DATE":null,"TLE_LINE2":"2 48130  53.0520 137.2482 0001118  92.3116 267.8001 15.06454920104053","EPHEMERIS_TYPE":"0","NORAD_CAT_ID":"48130","REF_FRAME":"TEME","FILE":"3812195","RCS_SIZE":"LARGE","APOAPSIS":"547.819","ECCENTRICITY":"0.00011180","COUNTRY_CODE":"US","MEAN_MOTION_DDOT":"0.0000000000000","MEAN_MOTION":"15.06454920","LAUNCH_DATE":"2021-04-07","EPOCH":"2023-02-19T18:12:38.510784","ARG_OF_PERICENTER":"92.3116","TIME_SYSTEM":"UTC","MEAN_ANOMALY":"267.8001","BSTAR":"0.00188730000000","GP_ID":"226063032","PERIOD":"95.589","RA_OF_ASC_NODE":"137.2482","OBJECT_ID":"2021-027AQ","PERIAPSIS":"546.271","REV_AT_EPOCH":"10405","ELEMENT_SET_NO":"999","MEAN_MOTION_DOT":"0.00027984"},{"MEAN_MOTION":"15.06430478","EPOCH":"2023-02-19T12:19:03.208512","LAUNCH_DATE":"2021-04-07","ARG_OF_PERICENTER":"77.8130","TIME_SYSTEM":"UTC","BSTAR":"0.00095765000000","MEAN_ANOMALY":"282.3015","GP_ID":"226045301","PERIOD":"95.590","RA_OF_ASC_NODE":"113.3497","OBJECT_ID":"2021-027AR","MEAN_MOTION_DOT":"0.00014023","PERIAPSIS":"546.156","ELEMENT_SET_NO":"999","REV_AT_EPOCH":"10476","SEMIMAJOR_AXIS":"6925.255","CLASSIFICATION_TYPE":"U","SITE":"AFETR","CENTER_NAME":"EARTH","INCLINATION":"53.0540","MEAN_ELEMENT_THEORY":"SGP4","OBJECT_NAME":"STARLINK-2473","TLE_LINE1":"1 48131U 21027AR  23050.51323158  .00014023  00000-0  95765-3 0  9992","OBJECT_TYPE":"PAYLOAD","TLE_LINE2":"2 48131  53.0540 113.3497 0001392  77.8130 282.3015 15.06430478104762","DECAY_DATE":null,"EPHEMERIS_TYPE":"0","FILE":"3811610","RCS_SIZE":"LARGE","NORAD_CAT_ID":"48131","REF_FRAME":"TEME","APOAPSIS":"548.084","ECCENTRICITY":"0.00013920","COUNTRY_CODE":"US","MEAN_MOTION_DDOT":"0.0000000000000"}];
